CCSDS_OMM_VERS = 2.0
CREATION_DATE  = 
ORIGINATOR     = 

OBJECT_NAME    = ATLAS CENTAUR R/B
OBJECT_ID      = 1972-065B
CENTER_NAME    = EARTH
REF_FRAME      = TEME
TIME_SYSTEM    = UTC
MEAN_ELEMENT_THEORY = SGP/SGP4

EPOCH          = 2025-12-02T12:32:35.389248
MEAN_MOTION    = 14.77362339
ECCENTRICITY   = .0034597
INCLINATION    = 34.9998
RA_OF_ASC_NODE = 155.0462
ARG_OF_PERICENTER = 272.9943
MEAN_ANOMALY   = 86.6799

EPHEMERIS_TYPE = 0
CLASSIFICATION_TYPE = U
NORAD_CAT_ID   = 6155
ELEMENT_SET_NO = 999
REV_AT_EPOCH   = 82688
BSTAR          = .21389E-3
MEAN_MOTION_DOT = .1538E-4
MEAN_MOTION_DDOT = 0

CCSDS_OMM_VERS = 2.0
CREATION_DATE  = 
ORIGINATOR     = 

OBJECT_NAME    = SL-8 R/B
OBJECT_ID      = 1975-112B
CENTER_NAME    = EARTH
REF_FRAME      = TEME
TIME_SYSTEM    = UTC
MEAN_ELEMENT_THEORY = SGP/SGP4

EPOCH          = 2025-12-02T01:09:42.674112
MEAN_MOTION    = 14.38134106
ECCENTRICITY   = .00164034
INCLINATION    = 74.0596
RA_OF_ASC_NODE = 198.5229
ARG_OF_PERICENTER = 311.0808
MEAN_ANOMALY   = 48.8929

EPHEMERIS_TYPE = 0
CLASSIFICATION_TYPE = U
NORAD_CAT_ID   = 8459
ELEMENT_SET_NO = 999
REV_AT_EPOCH   = 61783
BSTAR          = .11852389E-3
MEAN_MOTION_DOT = .334E-5
MEAN_MOTION_DDOT = 0

CCSDS_OMM_VERS = 2.0
CREATION_DATE  = 
ORIGINATOR     = 

OBJECT_NAME    = SL-3 R/B
OBJECT_ID      = 1977-057B
CENTER_NAME    = EARTH
REF_FRAME      = TEME
TIME_SYSTEM    = UTC
MEAN_ELEMENT_THEORY = SGP/SGP4

EPOCH          = 2025-12-02T10:38:08.523744
MEAN_MOTION    = 15.42570397
ECCENTRICITY   = .0006428
INCLINATION    = 97.5676
RA_OF_ASC_NODE = 139.3729
ARG_OF_PERICENTER = 276.2032
MEAN_ANOMALY   = 83.8482

EPHEMERIS_TYPE = 0
CLASSIFICATION_TYPE = U
NORAD_CAT_ID   = 10114
ELEMENT_SET_NO = 999
REV_AT_EPOCH   = 65332
BSTAR          = .34345E-3
MEAN_MOTION_DOT = .1485E-3
MEAN_MOTION_DDOT = 0

CCSDS_OMM_VERS = 2.0
CREATION_DATE  = 
ORIGINATOR     = 

OBJECT_NAME    = SEASAT 1
OBJECT_ID      = 1978-064A
CENTER_NAME    = EARTH
REF_FRAME      = TEME
TIME_SYSTEM    = UTC
MEAN_ELEMENT_THEORY = SGP/SGP4

EPOCH          = 2025-12-02T10:39:24.940224
MEAN_MOTION    = 14.46042297
ECCENTRICITY   = .00019
INCLINATION    = 108.0098
RA_OF_ASC_NODE = 281.4350
ARG_OF_PERICENTER = 250.4045
MEAN_ANOMALY   = 109.6896

EPHEMERIS_TYPE = 0
CLASSIFICATION_TYPE = U
NORAD_CAT_ID   = 10967
ELEMENT_SET_NO = 999
REV_AT_EPOCH   = 49245
BSTAR          = .21994E-3
MEAN_MOTION_DOT = .648E-5
MEAN_MOTION_DDOT = 0

CCSDS_OMM_VERS = 2.0
CREATION_DATE  = 
ORIGINATOR     = 

OBJECT_NAME    = SL-14 R/B
OBJECT_ID      = 1979-011B
CENTER_NAME    = EARTH
REF_FRAME      = TEME
TIME_SYSTEM    = UTC
MEAN_ELEMENT_THEORY = SGP/SGP4

EPOCH          = 2025-12-02T07:46:42.660768
MEAN_MOTION    = 14.91750016
ECCENTRICITY   = .0016827
INCLINATION    = 82.5242
RA_OF_ASC_NODE = 188.9220
ARG_OF_PERICENTER = 27.5911
MEAN_ANOMALY   = 332.6198

EPHEMERIS_TYPE = 0
CLASSIFICATION_TYPE = U
NORAD_CAT_ID   = 11267
ELEMENT_SET_NO = 999
REV_AT_EPOCH   = 51426
BSTAR          = .77344E-4
MEAN_MOTION_DOT = .806E-5
MEAN_MOTION_DDOT = 0

CCSDS_OMM_VERS = 2.0
CREATION_DATE  = 
ORIGINATOR     = 

OBJECT_NAME    = SL-8 R/B
OBJECT_ID      = 1979-089B
CENTER_NAME    = EARTH
REF_FRAME      = TEME
TIME_SYSTEM    = UTC
MEAN_ELEMENT_THEORY = SGP/SGP4

EPOCH          = 2025-12-02T07:02:06.198720
MEAN_MOTION    = 14.42271643
ECCENTRICITY   = .0014491
INCLINATION    = 74.0690
RA_OF_ASC_NODE = 271.3131
ARG_OF_PERICENTER = 110.1771
MEAN_ANOMALY   = 250.0945

EPHEMERIS_TYPE = 0
CLASSIFICATION_TYPE = U
NORAD_CAT_ID   = 11574
ELEMENT_SET_NO = 999
REV_AT_EPOCH   = 42206
BSTAR          = .13595E-3
MEAN_MOTION_DOT = .423E-5
MEAN_MOTION_DDOT = 0

CCSDS_OMM_VERS = 2.0
CREATION_DATE  = 
ORIGINATOR     = 

OBJECT_NAME    = SL-14 R/B
OBJECT_ID      = 1980-005B
CENTER_NAME    = EARTH
REF_FRAME      = TEME
TIME_SYSTEM    = UTC
MEAN_ELEMENT_THEORY = SGP/SGP4

EPOCH          = 2025-12-02T11:23:25.243008
MEAN_MOTION    = 14.90771908
ECCENTRICITY   = .0017047
INCLINATION    = 82.5157
RA_OF_ASC_NODE = 39.4340
ARG_OF_PERICENTER = 124.8508
MEAN_ANOMALY   = 235.4317

EPHEMERIS_TYPE = 0
CLASSIFICATION_TYPE = U
NORAD_CAT_ID   = 11672
ELEMENT_SET_NO = 999
REV_AT_EPOCH   = 46200
BSTAR          = .86406E-4
MEAN_MOTION_DOT = .877E-5
MEAN_MOTION_DDOT = 0

CCSDS_OMM_VERS = 2.0
CREATION_DATE  = 
ORIGINATOR     = 

OBJECT_NAME    = SL-8 R/B
OBJECT_ID      = 1981-003B
CENTER_NAME    = EARTH
REF_FRAME      = TEME
TIME_SYSTEM    = UTC
MEAN_ELEMENT_THEORY = SGP/SGP4

EPOCH          = 2025-12-02T09:03:59.806656
MEAN_MOTION    = 15.06550277
ECCENTRICITY   = .0281054
INCLINATION    = 82.9300
RA_OF_ASC_NODE = 19.7391
ARG_OF_PERICENTER = 155.9962
MEAN_ANOMALY   = 205.4675

EPHEMERIS_TYPE = 0
CLASSIFICATION_TYPE = U
NORAD_CAT_ID   = 12139
ELEMENT_SET_NO = 999
REV_AT_EPOCH   = 30000
BSTAR          = .62937E-3
MEAN_MOTION_DOT = .23535E-3
MEAN_MOTION_DDOT = 0

CCSDS_OMM_VERS = 2.0
CREATION_DATE  = 
ORIGINATOR     = 

OBJECT_NAME    = SL-3 R/B
OBJECT_ID      = 1981-046B
CENTER_NAME    = EARTH
REF_FRAME      = TEME
TIME_SYSTEM    = UTC
MEAN_ELEMENT_THEORY = SGP/SGP4

EPOCH          = 2025-12-02T10:11:21.473376
MEAN_MOTION    = 15.39277978
ECCENTRICITY   = .0019598
INCLINATION    = 81.2346
RA_OF_ASC_NODE = 46.2743
ARG_OF_PERICENTER = 0.6807
MEAN_ANOMALY   = 359.4458

EPHEMERIS_TYPE = 0
CLASSIFICATION_TYPE = U
NORAD_CAT_ID   = 12465
ELEMENT_SET_NO = 999
REV_AT_EPOCH   = 42345
BSTAR          = .34719E-3
MEAN_MOTION_DOT = .13652E-3
MEAN_MOTION_DDOT = 0

CCSDS_OMM_VERS = 2.0
CREATION_DATE  = 
ORIGINATOR     = 

OBJECT_NAME    = SL-3 R/B
OBJECT_ID      = 1981-103B
CENTER_NAME    = EARTH
REF_FRAME      = TEME
TIME_SYSTEM    = UTC
MEAN_ELEMENT_THEORY = SGP/SGP4

EPOCH          = 2025-12-02T10:58:30.622368
MEAN_MOTION    = 15.20034891
ECCENTRICITY   = .0011196
INCLINATION    = 81.1583
RA_OF_ASC_NODE = 327.3959
ARG_OF_PERICENTER = 252.9119
MEAN_ANOMALY   = 107.0885

EPHEMERIS_TYPE = 0
CLASSIFICATION_TYPE = U
NORAD_CAT_ID   = 12904
ELEMENT_SET_NO = 999
REV_AT_EPOCH   = 95845
BSTAR          = .40814E-3
MEAN_MOTION_DOT = .8838E-4
MEAN_MOTION_DDOT = 0

CCSDS_OMM_VERS = 2.0
CREATION_DATE  = 
ORIGINATOR     = 

OBJECT_NAME    = SL-3 R/B
OBJECT_ID      = 1982-013B
CENTER_NAME    = EARTH
REF_FRAME      = TEME
TIME_SYSTEM    = UTC
MEAN_ELEMENT_THEORY = SGP/SGP4

EPOCH          = 2025-12-02T10:43:00.670656
MEAN_MOTION    = 15.20933657
ECCENTRICITY   = .0023605
INCLINATION    = 81.1745
RA_OF_ASC_NODE = 274.6556
ARG_OF_PERICENTER = 143.7608
MEAN_ANOMALY   = 216.5228

EPHEMERIS_TYPE = 0
CLASSIFICATION_TYPE = U
NORAD_CAT_ID   = 13068
ELEMENT_SET_NO = 999
REV_AT_EPOCH   = 38956
BSTAR          = .29282E-3
MEAN_MOTION_DOT = .6554E-4
MEAN_MOTION_DDOT = 0

CCSDS_OMM_VERS = 2.0
CREATION_DATE  = 
ORIGINATOR     = 

OBJECT_NAME    = SL-3 R/B
OBJECT_ID      = 1982-039B
CENTER_NAME    = EARTH
REF_FRAME      = TEME
TIME_SYSTEM    = UTC
MEAN_ELEMENT_THEORY = SGP/SGP4

EPOCH          = 2025-12-02T10:20:26.797344
MEAN_MOTION    = 15.09424846
ECCENTRICITY   = .0030425
INCLINATION    = 81.1732
RA_OF_ASC_NODE = 327.9556
ARG_OF_PERICENTER = 287.1658
MEAN_ANOMALY   = 72.6236

EPHEMERIS_TYPE = 0
CLASSIFICATION_TYPE = U
NORAD_CAT_ID   = 13154
ELEMENT_SET_NO = 999
REV_AT_EPOCH   = 36696
BSTAR          = .2514E-3
MEAN_MOTION_DOT = .4085E-4
MEAN_MOTION_DDOT = 0

