ATLAS CENTAUR R/B       
1 06155U 72065B   25336.52263182  .00001538  00000+0  21389-3 0  9997
2 06155  34.9998 155.0462 0034597 272.9943  86.6799 14.77362339826880
SL-8 R/B                
1 08459U 75112B   25336.04841058  .00000334  00000+0  11852-3 0  9990
2 08459  74.0596 198.5229 0016403 311.0808  48.8929 14.38134106617836
SL-3 R/B                
1 10114U 77057B   25336.44315421  .00014850  00000+0  34345-3 0  9995
2 10114  97.5676 139.3729 0006428 276.2032  83.8482 15.42570397653320
SEASAT 1                
1 10967U 78064A   25336.44403866  .00000648  00000+0  21994-3 0  9997
2 10967 108.0098 281.4350 0001900 250.4045 109.6896 14.46042297492456
SL-14 R/B               
1 11267U 79011B   25336.32410487  .00000806  00000+0  77344-4 0  9995
2 11267  82.5242 188.9220 0016827  27.5911 332.6198 14.91750016514265
SL-8 R/B                
1 11574U 79089B   25336.29312730  .00000423  00000+0  13595-3 0  9991
2 11574  74.0690 271.3131 0014491 110.1771 250.0945 14.42271643422064
SL-14 R/B               
1 11672U 80005B   25336.47459772  .00000877  00000+0  86406-4 0  9993
2 11672  82.5157  39.4340 0017047 124.8508 235.4317 14.90771908462000
SL-8 R/B                
1 12139U 81003B   25336.37777554  .00023535  00000+0  62937-3 0  9999
2 12139  82.9300  19.7391 0281054 155.9962 205.4675 15.06550277300007
SL-3 R/B                
1 12465U 81046B   25336.42455409  .00013652  00000+0  34719-3 0  9992
2 12465  81.2346  46.2743 0019598   0.6807 359.4458 15.39277978423457
SL-3 R/B                
1 12904U 81103B   25336.45729887  .00008838  00000+0  40814-3 0  9994
2 12904  81.1583 327.3959 0011196 252.9119 107.0885 15.20034891958452
SL-3 R/B                
1 13068U 82013B   25336.44653554  .00006554  00000+0  29282-3 0  9992
2 13068  81.1745 274.6556 0023605 143.7608 216.5228 15.20933657389564
SL-3 R/B                
1 13154U 82039B   25336.43086571  .00004085  00000+0  25140-3 0  9990
2 13154  81.1732 327.9556 0030425 287.1658  72.6236 15.09424846366965
